[{"OBJECT_NAME":"STARLINK-34433","OBJECT_ID":"2025-130L","EPOCH":"2026-03-09T18:53:34.534464","MEAN_MOTION":15.30207837,"ECCENTRICITY":0.00014636,"INCLINATION":53.1605,"RA_OF_ASC_NODE":88.3913,"ARG_OF_PERICENTER":74.1491,"MEAN_ANOMALY":285.9671,"EPHEMERIS_TYPE":0,"CLASSIFICATION_TYPE":"U","NORAD_CAT_ID":64448,"ELEMENT_SET_NO":999,"REV_AT_EPOCH":4071,"BSTAR":0.00078131869,"MEAN_MOTION_DOT":0.00022858,"MEAN_MOTION_DDOT":0},{"OBJECT_NAME":"CERISE","OBJECT_ID":"1995-033B","EPOCH":"2026-03-09T23:11:27.589056","MEAN_MOTION":15.32047731,"ECCENTRICITY":0.00057118,"INCLINATION":98.325,"RA_OF_ASC_NODE":273.5192,"ARG_OF_PERICENTER":211.8754,"MEAN_ANOMALY":148.214,"EPHEMERIS_TYPE":0,"CLASSIFICATION_TYPE":"U","NORAD_CAT_ID":23606,"ELEMENT_SET_NO":999,"REV_AT_EPOCH":66468,"BSTAR":0.00062940675,"MEAN_MOTION_DOT":0.00019422,"MEAN_MOTION_DDOT":0}]
